QIANFAN-81              
1 63167U 25046J   25329.08412801  .00000125  00000+0  17402-3 0  9999
2 63167  88.9753 321.7011 0014994 164.8106 195.3499 13.50997283 45100
QIANFAN-82              
1 63168U 25046K   25329.04377889  .00000073  00000+0  94435-4 0  9996
2 63168  88.9753 321.7491 0012863 171.6364 188.5004 13.50976845 45082
QIANFAN-83              
1 63169U 25046L   25329.14023308  .00000058  00000+0  58708-4 0  9998
2 63169  88.9754 321.5500 0014616 158.4639 201.7136 13.61969974 45204
QIANFAN-84              
1 63170U 25046M   25329.07173008 -.00000035  00000+0 -72285-4 0  9998
2 63170  88.9748 321.8790 0015927 169.7928 190.3550 13.50985586 45012
QIANFAN-85              
1 63171U 25046N   25329.06835561  .00000099  00000+0  13427-3 0  9997
2 63171  88.9752 321.7510 0013253 170.7361 189.4037 13.50981924 45088
QIANFAN-86              
1 63172U 25046P   25329.15074706  .00000087  00000+0  11674-3 0  9993
2 63172  88.9755 321.6042 0011036 173.2377 186.8925 13.50978653 45175
QIANFAN-87              
1 63173U 25046Q   25329.12204454  .00000020  00000+0  11603-4 0  9996
2 63173  88.9751 321.7196 0011827 168.9784 191.1629 13.50971071 45104
QIANFAN-88              
1 63174U 25046R   25329.06438492  .00000100  00000+0  13601-3 0  9999
2 63174  88.9753 321.6797 0011971 177.3711 182.7505 13.50976350 45123
